{
  "type": "FeatureCollection",
  "features": [
    {
      "type": "Feature",
      "properties": {
        "norad_id": 37966,
        "name": "COSMOS 2251 DEB",
        "group": "cosmos-2251-debris",
        "lat": 70.62893443374101,
        "lon": -94.40932768679843,
        "alt_km": 511.30338576171835,
        "timestamp": "2025-12-22T05:49:03.899163+00:00",
        "meta_object_name": "COSMOS 2251 DEB",
        "meta_object_id": "1993-036BPR",
        "meta_epoch": "2025-12-13T08:51:38.421216",
        "meta_mean_motion": 15.12745257,
        "meta_eccentricity": 0.0008827,
        "meta_inclination": 73.9781,
        "meta_ra_of_asc_node": 229.2381,
        "meta_arg_of_pericenter": 105.5668,
        "meta_mean_anomaly": 254.6501,
        "meta_ephemeris_type": 0,
        "meta_classification_type": "U",
        "meta_norad_cat_id": 37966,
        "meta_element_set_no": 999,
        "meta_rev_at_epoch": 85352,
        "meta_bstar": 0.0033929,
        "meta_mean_motion_dot": 0.00060007,
        "meta_mean_motion_ddot": 0,
        "tle_line1": "1 37966U 93036BPR 25347.36919469  .00060007  00000+0  33929-2 0  9990",
        "tle_line2": "2 37966  73.9781 229.2381 0008827 105.5668 254.6501 15.12745257853526"
      },
      "geometry": {
        "type": "Point",
        "coordinates": [
          -94.40932768679843,
          70.62893443374101
        ]
      }
    },
    {
      "type": "Feature",
      "properties": {
        "norad_id": 37967,
        "name": "COSMOS 2251 DEB",
        "group": "cosmos-2251-debris",
        "lat": 37.12438872552971,
        "lon": -72.75212307353674,
        "alt_km": 798.5163788511345,
        "timestamp": "2025-12-22T05:49:03.899173+00:00",
        "meta_object_name": "COSMOS 2251 DEB",
        "meta_object_id": "1993-036BPS",
        "meta_epoch": "2025-12-21T02:29:02.378400",
        "meta_mean_motion": 14.40598086,
        "meta_eccentricity": 0.01510517,
        "meta_inclination": 74.0159,
        "meta_ra_of_asc_node": 121.8881,
        "meta_arg_of_pericenter": 258.8957,
        "meta_mean_anomaly": 99.5182,
        "meta_ephemeris_type": 0,
        "meta_classification_type": "U",
        "meta_norad_cat_id": 37967,
        "meta_element_set_no": 999,
        "meta_rev_at_epoch": 64856,
        "meta_bstar": 0.001164816,
        "meta_mean_motion_dot": 4.223e-05,
        "meta_mean_motion_ddot": 0,
        "tle_line1": "1 37967U 93036BPS 25355.10349975  .00004223  00000+0  11648-2 0  9993",
        "tle_line2": "2 37967  74.0159 121.8881 0151051 258.8957  99.5182 14.40598086648564"
      },
      "geometry": {
        "type": "Point",
        "coordinates": [
          -72.75212307353674,
          37.12438872552971
        ]
      }
    },
    {
      "type": "Feature",
      "properties": {
        "norad_id": 37968,
        "name": "COSMOS 2251 DEB",
        "group": "cosmos-2251-debris",
        "lat": -10.037838501190404,
        "lon": 74.69106687291179,
        "alt_km": 623.9114469771794,
        "timestamp": "2025-12-22T05:49:03.899183+00:00",
        "meta_object_name": "COSMOS 2251 DEB",
        "meta_object_id": "1993-036BPT",
        "meta_epoch": "2025-12-21T00:10:33.901248",
        "meta_mean_motion": 15.00806785,
        "meta_eccentricity": 0.00805513,
        "meta_inclination": 74.0006,
        "meta_ra_of_asc_node": 254.2977,
        "meta_arg_of_pericenter": 7.8808,
        "meta_mean_anomaly": 352.3622,
        "meta_ephemeris_type": 0,
        "meta_classification_type": "U",
        "meta_norad_cat_id": 37968,
        "meta_element_set_no": 999,
        "meta_rev_at_epoch": 60343,
        "meta_bstar": 0.00064941669,
        "meta_mean_motion_dot": 8.807e-05,
        "meta_mean_motion_ddot": 0,
        "tle_line1": "1 37968U 93036BPT 25355.00733682  .00008807  00000+0  64942-3 0  9993",
        "tle_line2": "2 37968  74.0006 254.2977 0080551   7.8808 352.3622 15.00806785603437"
      },
      "geometry": {
        "type": "Point",
        "coordinates": [
          74.69106687291179,
          -10.037838501190404
        ]
      }
    },
    {
      "type": "Feature",
      "properties": {
        "norad_id": 37971,
        "name": "COSMOS 2251 DEB",
        "group": "cosmos-2251-debris",
        "lat": 47.51548844188869,
        "lon": -174.38327886622105,
        "alt_km": 684.9462543116306,
        "timestamp": "2025-12-22T05:49:03.899195+00:00",
        "meta_object_name": "COSMOS 2251 DEB",
        "meta_object_id": "1993-036BPW",
        "meta_epoch": "2025-12-21T19:16:34.897152",
        "meta_mean_motion": 14.48757325,
        "meta_eccentricity": 0.0065941,
        "meta_inclination": 73.9924,
        "meta_ra_of_asc_node": 24.7096,
        "meta_arg_of_pericenter": 161.9609,
        "meta_mean_anomaly": 198.3914,
        "meta_ephemeris_type": 0,
        "meta_classification_type": "U",
        "meta_norad_cat_id": 37971,
        "meta_element_set_no": 999,
        "meta_rev_at_epoch": 60809,
        "meta_bstar": 0.0013046,
        "meta_mean_motion_dot": 5.035e-05,
        "meta_mean_motion_ddot": 0,
        "tle_line1": "1 37971U 93036BPW 25355.80318168  .00005035  00000+0  13046-2 0  9991",
        "tle_line2": "2 37971  73.9924  24.7096 0065941 161.9609 198.3914 14.48757325608092"
      },
      "geometry": {
        "type": "Point",
        "coordinates": [
          -174.38327886622105,
          47.51548844188869
        ]
      }
    },
    {
      "type": "Feature",
      "properties": {
        "norad_id": 37975,
        "name": "COSMOS 2251 DEB",
        "group": "cosmos-2251-debris",
        "lat": -56.52980963774962,
        "lon": 151.13845369470312,
        "alt_km": 606.009047021048,
        "timestamp": "2025-12-22T05:49:03.899205+00:00",
        "meta_object_name": "COSMOS 2251 DEB",
        "meta_object_id": "1993-036BQA",
        "meta_epoch": "2025-12-18T06:24:18.775872",
        "meta_mean_motion": 14.76341165,
        "meta_eccentricity": 0.00951612,
        "meta_inclination": 74.0019,
        "meta_ra_of_asc_node": 313.2207,
        "meta_arg_of_pericenter": 301.4276,
        "meta_mean_anomaly": 57.7618,
        "meta_ephemeris_type": 0,
        "meta_classification_type": "U",
        "meta_norad_cat_id": 37975,
        "meta_element_set_no": 999,
        "meta_rev_at_epoch": 69827,
        "meta_bstar": 0.0032629501,
        "meta_mean_motion_dot": 0.00024448,
        "meta_mean_motion_ddot": 0,
        "tle_line1": "1 37975U 93036BQA 25352.26688398  .00024448  00000+0  32630-2 0  9996",
        "tle_line2": "2 37975  74.0019 313.2207 0095161 301.4276  57.7618 14.76341165698271"
      },
      "geometry": {
        "type": "Point",
        "coordinates": [
          151.13845369470312,
          -56.52980963774962
        ]
      }
    },
    {
      "type": "Feature",
      "properties": {
        "norad_id": 37985,
        "name": "COSMOS 2251 DEB",
        "group": "cosmos-2251-debris",
        "lat": -7.030053766623517,
        "lon": -113.72598226558071,
        "alt_km": 762.4621736121508,
        "timestamp": "2025-12-22T05:49:03.899215+00:00",
        "meta_object_name": "COSMOS 2251 DEB",
        "meta_object_id": "1993-036BQL",
        "meta_epoch": "2025-12-17T23:49:27.671232",
        "meta_mean_motion": 14.35484605,
        "meta_eccentricity": 0.00210144,
        "meta_inclination": 74.0252,
        "meta_ra_of_asc_node": 256.0955,
        "meta_arg_of_pericenter": 17.3481,
        "meta_mean_anomaly": 342.8385,
        "meta_ephemeris_type": 0,
        "meta_classification_type": "U",
        "meta_norad_cat_id": 37985,
        "meta_element_set_no": 999,
        "meta_rev_at_epoch": 64992,
        "meta_bstar": 4.3734025e-05,
        "meta_mean_motion_dot": 1e-06,
        "meta_mean_motion_ddot": 0,
        "tle_line1": "1 37985U 93036BQL 25351.99268138  .00000100  00000+0  43734-4 0  9990",
        "tle_line2": "2 37985  74.0252 256.0955 0021014  17.3481 342.8385 14.35484605649921"
      },
      "geometry": {
        "type": "Point",
        "coordinates": [
          -113.72598226558071,
          -7.030053766623517
        ]
      }
    },
    {
      "type": "Feature",
      "properties": {
        "norad_id": 37988,
        "name": "COSMOS 2251 DEB",
        "group": "cosmos-2251-debris",
        "lat": 53.42721129651095,
        "lon": 28.315436083308892,
        "alt_km": 616.0864329573242,
        "timestamp": "2025-12-22T05:49:03.899225+00:00",
        "meta_object_name": "COSMOS 2251 DEB",
        "meta_object_id": "1993-036BQP",
        "meta_epoch": "2025-12-19T02:22:34.688640",
        "meta_mean_motion": 14.6891967,
        "meta_eccentricity": 0.00635463,
        "meta_inclination": 74.062,
        "meta_ra_of_asc_node": 11.7337,
        "meta_arg_of_pericenter": 47.3595,
        "meta_mean_anomaly": 313.2907,
        "meta_ephemeris_type": 0,
        "meta_classification_type": "U",
        "meta_norad_cat_id": 37988,
        "meta_element_set_no": 999,
        "meta_rev_at_epoch": 23489,
        "meta_bstar": 0.00064166354,
        "meta_mean_motion_dot": 3.842e-05,
        "meta_mean_motion_ddot": 0,
        "tle_line1": "1 37988U 93036BQP 25353.09901260  .00003842  00000+0  64166-3 0  9993",
        "tle_line2": "2 37988  74.0620  11.7337 0063546  47.3595 313.2907 14.68919670234897"
      },
      "geometry": {
        "type": "Point",
        "coordinates": [
          28.315436083308892,
          53.42721129651095
        ]
      }
    }
  ]
}